315P/LONEOS,e,17.8218,69.1370,65.6320,4.940868,0.0897427,0.52248264,117.6013,07/05.0/2020,2000,g 11.0,4.0
# From MPC 92279
316P/LONEOS-Christensen,e,9.8776,246.7527,193.8197,4.349084,0.1086694,0.16015689,186.2616,07/05.0/2020,2000,g 13.5,4.0
# From MPEC 2020-C98
317P/WISE,e,11.9509,275.5198,334.9085,2.965059,0.1930430,0.57040906,343.9418,07/05.0/2020,2000,g 17.5,4.0
# From MPC102103
318P/McNaught-Hartley,e,17.8727,35.6446,313.1088,7.496426,0.0480201,0.67492202,82.4177,07/05.0/2020,2000,g  8.5,6.0
# From MPC 97499
319P/Catalina-McNaught,e,15.0956,111.3807,203.6150,3.568903,0.1461847,0.66650604,267.2567,07/05.0/2020,2000,g 15.0,4.0
# From MPC 96281
320P/McNaught,e,4.9090,295.9312,0.7716,3.093976,0.1811043,0.68572705,324.4778,07/05.0/2020,2000,g 20.5,4.0
# From MPC105243
321P/SOHO,e,20.0510,165.0409,172.7265,2.423044,0.2613137,0.98107044,0.0000,01/17.2540/2020,2000,g 20.0,4.0
# From MPC102103
322P/SOHO,e,11.4600,351.4711,56.9343,2.508354,0.2480967,0.97976608,0.0000,08/31.4933/2019,2000,g 19.0,4.0
# From MPEC 2016-Y36
323P/SOHO,e,5.3380,324.3747,353.0497,2.582295,0.2375173,0.98483768,0.0000,01/17.7583/2021,2000,g 20.0,4.0
# From MPC108598
324P/La Sagra,e,21.4219,270.6448,58.0061,3.095889,0.1809364,0.15457617,304.5697,07/05.0/2020,2000,g 13.0,4.0
# From MPC114609
325P/Yang-Gao,e,16.7000,257.5788,343.6841,3.524104,0.1489811,0.59375554,265.8416,07/05.0/2020,2000,g 14.0,4.0
# From MPC103849
326P/Hill,e,2.4707,99.8148,278.5847,4.064631,0.1202742,0.31725052,206.7127,07/05.0/2020,2000,g 13.5,4.0
# From MPC 97499
327P/Van Ness,e,36.2423,173.9715,185.0183,3.563053,0.1465449,0.56273914,244.2823,07/05.0/2020,2000,g 16.0,4.0
# From MPC109148
328P/LONEOS-Tucker,e,17.6678,341.6196,30.4824,4.196223,0.1146611,0.55156527,189.7508,07/05.0/2020,2000,g 14.5,4.0
# From MPC101101
329P/LINEAR-Catalina,e,21.6636,87.6856,343.5577,5.193230,0.0832814,0.67681119,139.8144,07/05.0/2020,2000,g 13.5,4.0
# From MPC105243
330P/Catalina,e,15.6941,293.0962,189.0124,6.633142,0.0576933,0.54878837,81.1909,07/05.0/2020,2000,g 12.0,4.0
# From MPC110497
331P/Gibbs,e,9.7401,216.7785,183.7086,3.003132,0.1893836,0.04059399,343.6283,07/05.0/2020,2000,g 12.0,4.0
# From MPEC 2016-K18
332P/Ikeya-Murakami,e,9.3807,3.7929,152.3739,3.088033,0.1816273,0.48943006,285.6279,07/05.0/2020,2000,g 18.0,4.0
# From MPEC 2016-EI8
332P-B/Ikeya-Murakami,e,9.3805,3.8028,152.3711,3.082329,0.1821317,0.48970701,359.9699,03/17.0/2016,2000,g 19.0,4.0
# From MPEC 2016-K18
332P-C/Ikeya-Murakami,e,9.3797,3.7933,152.3652,3.087999,0.1816303,0.48943547,285.6408,07/05.0/2020,2000,g 16.5,4.0
# From MPEC 2016-ED0
332P-D/Ikeya-Murakami,e,9.3761,3.7923,152.4393,3.081138,0.1822373,0.48977814,359.9486,03/17.0/2016,2000,g 19.0,4.0
# From MPEC 2016-ED0
332P-E/Ikeya-Murakami,e,9.3774,3.8228,152.2825,3.079877,0.1823493,0.48922008,359.9889,03/17.0/2016,2000,g 21.0,4.0
# From MPEC 2016-ED0
332P-F/Ikeya-Murakami,e,9.5293,3.4757,152.8203,3.163214,0.1751908,0.49918860,359.8501,03/17.0/2016,2000,g 21.0,4.0
# From MPEC 2016-ED0
332P-G/Ikeya-Murakami,e,9.2523,3.6955,154.4000,3.050519,0.1849880,0.49200362,359.9006,03/19.0/2016,2000,g 19.0,4.0
# From MPC100285
332P-H/Ikeya-Murakami,e,9.3802,3.7930,152.3659,3.088183,0.1816141,0.48947063,285.5824,07/05.0/2020,2000,g 19.0,4.0
# From MPEC 2016-ED0
332P-I/Ikeya-Murakami,e,9.3791,3.8048,152.3297,3.081767,0.1821815,0.48955490,359.9360,03/17.0/2016,2000,g 20.5,2.0
# From MPEC 2016-EI8
332P-J/Ikeya-Murakami,e,9.4296,3.6729,152.7712,3.115165,0.1792596,0.49429435,359.8613,03/17.0/2016,2000,g 20.5,2.0
# From MPEC 2020-L06
333P/LINEAR,e,131.9810,115.6263,26.0477,4.219527,0.1137126,0.73643931,176.8940,07/05.0/2020,2000,g 15.0,4.0
# From MPC115888
334P/NEAT,e,20.4964,90.7429,89.8156,6.837366,0.0551278,0.35423434,61.8368,07/05.0/2020,2000,g 10.5,4.0
# From MPC100285
335P/Gibbs,e,7.2911,330.8425,162.2367,3.578961,0.1455689,0.54516149,248.1273,07/05.0/2020,2000,g 17.0,4.0
# From MPC105244
336P/McNaught,e,17.8341,298.2250,308.7229,5.030009,0.0873677,0.44569020,109.0168,07/05.0/2020,2000,g 13.5,4.0
# From MPC115888
337P/WISE,e,15.3741,106.0721,160.9787,3.287732,0.1653330,0.49694028,239.9846,07/05.0/2020,2000,g 17.0,4.0
# From MPC104796
338P/McNaught,e,25.3689,9.7866,4.3971,3.898532,0.1280420,0.41095209,169.1230,07/05.0/2020,2000,g 12.0,4.0
# From MPC101101
339P/Gibbs,e,5.7359,172.7495,27.5252,3.695411,0.1387426,0.63593763,200.1713,07/05.0/2020,2000,g 17.0,4.0
# From MPC102957
340P/Boattini,e,2.0798,291.7289,35.7819,4.251611,0.1124278,0.28057640,148.7926,07/05.0/2020,2000,g 13.0,4.0
# From MPC109148
341P/Gibbs,e,3.7945,30.0002,312.1049,4.294716,0.1107395,0.41504805,166.0020,07/05.0/2020,2000,g 12.5,4.0
# From MPC101101
342P/SOHO,e,11.8775,32.2992,68.8755,3.043939,0.1855881,0.98331520,0.0000,10/19.0039/2021,2000,g  9.0,4.0
# From MPC109148
343P/NEAT-LONEOS,e,5.5830,257.2402,137.3739,5.462427,0.0772015,0.58367986,96.8336,07/05.0/2020,2000,g 14.0,4.0
# From MPC109148
344P/Read,e,3.4902,273.1929,140.4150,4.868102,0.0917624,0.42140444,123.2000,07/05.0/2020,2000,g 13.0,4.0
# From MPC109148
345P/LINEAR,e,2.7264,154.4983,196.3447,4.040538,0.1213515,0.22052642,175.9247,07/05.0/2020,2000,g 12.0,4.0
# From MPC110086
346P/Catalina,e,22.1851,102.4695,336.0237,4.476835,0.1040513,0.50230010,128.7081,07/05.0/2020,2000,g 14.0,4.0
# From MPC108599
347P/PANSTARRS,e,11.7477,261.0468,98.2895,3.607416,0.1438499,0.38530087,200.2602,07/05.0/2020,2000,g 15.0,4.0
# From MPC104796
348P/PANSTARRS,e,17.7342,312.9383,135.3395,3.155316,0.1758489,0.30634992,256.8008,07/05.0/2020,2000,g 14.0,4.0
# From MPC112394
349P/Lemmon,e,5.4911,331.7496,256.0483,3.571800,0.1460069,0.29949947,152.3942,07/05.0/2020,2000,g 14.0,4.0
# From MPC111775
350P/McNaught,e,7.3565,65.3971,141.0507,4.098010,0.1188077,0.09070782,110.1831,07/05.0/2020,2000,g 14.0,4.0
# From MPC105244
351P/Wiegert-PANSTARRS,e,12.7910,283.4490,352.6174,4.436709,0.1054661,0.29618174,178.2645,07/05.0/2020,2000,g 12.5,4.0
# From MPC110086
352P/Skiff,e,21.0092,28.1064,309.1188,6.634248,0.0576788,0.61809071,63.9591,07/05.0/2020,2000,g 11.5,4.0
# From MPEC 2020-AA5
353P/McNaught,e,28.4252,121.5630,230.3702,4.171487,0.1156825,0.46981672,107.2038,07/05.0/2020,2000,g 14.5,4.0
# From MPC105545
354P/LINEAR,e,5.2555,320.1291,133.0630,2.290010,0.2844121,0.12564983,19.4833,07/05.0/2020,2000,g 15.5,4.0
# From MPEC 2020-AA5
355P/LINEAR-NEAT,e,11.0350,51.4435,336.2501,3.472897,0.1522882,0.50672437,151.7299,07/05.0/2020,2000,g 15.5,2.0
# From MPC109148
356P/WISE,e,9.6344,160.7892,226.0338,4.161152,0.1161138,0.35452597,108.1138,07/05.0/2020,2000,g 14.0,4.0
# From MPC114609
357P/Hill,e,6.3094,44.5860,1.4308,4.462375,0.1045575,0.43439444,80.3268,07/05.0/2020,2000,g 15.5,4.0
# From MPEC 2020-HN5
358P/PANSTARRS,e,11.0571,85.7171,299.7406,3.148766,0.1763980,0.23800912,143.8789,07/05.0/2020,2000,g 18.0,4.0
# From MPC110086
359P/LONEOS,e,10.2647,149.7594,200.1184,4.639376,0.0986313,0.32383634,103.4749,07/05.0/2020,2000,g 13.5,4.0
# From MPC108599
360P/WISE,e,24.0938,2.1954,354.1103,3.703129,0.1383091,0.49851461,145.3889,07/05.0/2020,2000,g 19.5,6.0
# From MPC114609
361P/Spacewatch,e,13.8860,203.2563,219.1171,4.941127,0.0897356,0.43774790,65.8542,07/05.0/2020,2000,g 12.0,4.0
# From MPEC 2017-V13
362P/,e,15.5597,192.5911,53.6750,3.967308,0.1247269,0.27998544,175.9849,07/05.0/2020,2000,g 12.9,2.0
# From MPC114609
363P/Lemmon,e,4.7402,152.6917,334.7234,3.483968,0.1515629,0.55320853,125.4659,07/05.0/2020,2000,g 17.5,4.0
# From MPC114609
364P/PANSTARRS,e,12.1474,46.2124,211.9785,2.878743,0.2017900,0.72251504,149.6490,07/05.0/2020,2000,g 17.0,2.0
# From MPC111775
365P/PANSTARRS,e,9.8373,87.4142,66.2199,3.179874,0.1738158,0.57505862,152.0575,07/05.0/2020,2000,g 17.0,4.0
# From MPC114610
366P/Spacewatch,e,8.8595,70.7531,153.1719,3.495563,0.1508094,0.34855443,107.8018,07/05.0/2020,2000,g 15.0,4.0
# From MPC112395
367P/Catalina,e,8.4637,58.7152,172.9266,3.505108,0.1501938,0.28060178,111.8329,07/05.0/2020,2000,g 17.5,2.0
# From MPC114610
368P/NEAT,e,15.4837,257.9706,118.7748,5.526423,0.0758644,0.62610398,50.0454,07/05.0/2020,2000,g 14.0,4.0
# From MPC114610
369P/Hill,e,10.3098,47.3066,13.2189,4.386407,0.1072854,0.55413430,67.4795,07/05.0/2020,2000,g 15.0,4.0
# From MPC114610
370P/NEAT,e,19.3988,55.1433,356.7055,6.437325,0.0603456,0.61431165,45.6607,07/05.0/2020,2000,g 13.0,4.0
# From MPC114610
371P/LINEAR-Skiff,e,17.3778,67.3255,308.4497,4.181409,0.1152710,0.47632180,73.6993,07/05.0/2020,2000,g 16.0,4.0
# From MPEC 2019-TG9
372P/McNaught,e,9.5096,325.8205,27.1191,4.502134,0.1031755,0.15251579,64.3165,07/05.0/2020,2000,g 13.5,4.0
# From MPC114610
373P/Rinner,e,13.7583,231.9513,221.1588,3.805363,0.1327730,0.39218149,60.1530,07/05.0/2020,2000,g 14.5,4.0
# From MPC114610
374P/Larson,e,10.7599,7.9163,51.5428,4.975472,0.0888081,0.46227805,48.0737,07/05.0/2020,2000,g 14.0,4.0
# From MPC114610
375P/Hill,e,17.3619,359.9494,119.4727,5.560022,0.0751777,0.65888701,42.2252,07/05.0/2020,2000,g 16.0,4.0
# From MPEC 2020-L06
376P/LONEOS,e,1.1936,314.8341,285.3296,5.873383,0.0692423,0.51836132,19.3980,07/05.0/2020,2000,g 12.5,4.0
# From MPC115888
377P/Scotti,e,9.0221,226.0594,354.9717,6.713553,0.0566598,0.25275027,359.6420,07/05.0/2020,2000,g  9.5,4.0
# From MPEC 2019-TG9
378P/McNaught,e,19.1069,94.5172,194.1305,6.369474,0.0613125,0.46923940,353.3571,07/05.0/2020,2000,g 12.0,4.0
# From MPC115889
379P/Spacewatch,e,12.3876,183.9396,31.2621,3.528732,0.1486881,0.33899438,50.3164,07/05.0/2020,2000,g 15.0,4.0
# From MPEC 2020-KB7
380P/PANSTARRS,e,8.2536,132.9913,90.0610,4.545953,0.1016873,0.32992889,40.0821,07/05.0/2020,2000,g 12.5,4.0
# From MPEC 2019-TG9
381P/LINEAR-Spacewatch,e,28.3754,173.7871,173.1120,7.115812,0.0519239,0.68161775,14.6464,07/05.0/2020,2000,g 17.5,2.0
# From MPC115889
382P/Larson,e,7.6737,177.3723,174.2995,6.224128,0.0634726,0.29796632,318.7113,07/05.0/2020,2000,g  8.0,4.0
# From MPC118844
383P/Christensen,e,12.3216,207.8945,133.6304,3.543793,0.1477412,0.59950815,37.3451,07/05.0/2020,2000,g 18.0,4.0
# From MPEC 2020-C98
